{
  "type": "FeatureCollection",
  "features": [
    {
      "type": "Feature",
      "properties": {
        "norad_id": 24946,
        "name": "IRIDIUM 33",
        "group": "iridium-33-debris",
        "lat": 84.55086773497678,
        "lon": 113.51213583345086,
        "alt_km": 771.3189217634235,
        "timestamp": "2025-12-03T15:48:03.451359+00:00",
        "meta_object_name": "IRIDIUM 33",
        "meta_object_id": "1997-051C",
        "meta_epoch": "2025-12-03T08:42:27.455328",
        "meta_mean_motion": 14.35026123,
        "meta_eccentricity": 0.00061213,
        "meta_inclination": 86.387,
        "meta_ra_of_asc_node": 72.1571,
        "meta_arg_of_pericenter": 236.6396,
        "meta_mean_anomaly": 123.4215,
        "meta_ephemeris_type": 0,
        "meta_classification_type": "U",
        "meta_norad_cat_id": 24946,
        "meta_element_set_no": 999,
        "meta_rev_at_epoch": 47700,
        "meta_bstar": 0.00019168514,
        "meta_mean_motion_dot": 5.65e-06,
        "meta_mean_motion_ddot": 0,
        "tle_line1": "1 24946U 97051C   25337.36281777  .00000565  00000+0  19169-3 0  9992",
        "tle_line2": "2 24946  86.3870  72.1571 0006121 236.6396 123.4215 14.35026123477000"
      },
      "geometry": {
        "type": "Point",
        "coordinates": [
          113.51213583345086,
          84.55086773497678
        ]
      }
    },
    {
      "type": "Feature",
      "properties": {
        "norad_id": 33773,
        "name": "IRIDIUM 33 DEB",
        "group": "iridium-33-debris",
        "lat": 44.917575084583284,
        "lon": -119.16058963989391,
        "alt_km": 737.8180454163739,
        "timestamp": "2025-12-03T15:48:03.451400+00:00",
        "meta_object_name": "IRIDIUM 33 DEB",
        "meta_object_id": "1997-051L",
        "meta_epoch": "2025-12-02T19:12:34.458048",
        "meta_mean_motion": 14.43219569,
        "meta_eccentricity": 0.00114308,
        "meta_inclination": 86.4014,
        "meta_ra_of_asc_node": 64.8005,
        "meta_arg_of_pericenter": 177.1469,
        "meta_mean_anomaly": 182.9799,
        "meta_ephemeris_type": 0,
        "meta_classification_type": "U",
        "meta_norad_cat_id": 33773,
        "meta_element_set_no": 999,
        "meta_rev_at_epoch": 88204,
        "meta_bstar": 0.00045843518,
        "meta_mean_motion_dot": 1.562e-05,
        "meta_mean_motion_ddot": 0,
        "tle_line1": "1 33773U 97051L   25336.80039882  .00001562  00000+0  45844-3 0  9993",
        "tle_line2": "2 33773  86.4014  64.8005 0011430 177.1469 182.9799 14.43219569882046"
      },
      "geometry": {
        "type": "Point",
        "coordinates": [
          -119.16058963989391,
          44.917575084583284
        ]
      }
    },
    {
      "type": "Feature",
      "properties": {
        "norad_id": 33775,
        "name": "IRIDIUM 33 DEB",
        "group": "iridium-33-debris",
        "lat": -82.1281340911802,
        "lon": 26.05145568498669,
        "alt_km": 761.7707814205723,
        "timestamp": "2025-12-03T15:48:03.451415+00:00",
        "meta_object_name": "IRIDIUM 33 DEB",
        "meta_object_id": "1997-051N",
        "meta_epoch": "2025-12-03T04:47:18.934080",
        "meta_mean_motion": 14.41433702,
        "meta_eccentricity": 0.00131902,
        "meta_inclination": 86.3643,
        "meta_ra_of_asc_node": 53.6257,
        "meta_arg_of_pericenter": 185.0257,
        "meta_mean_anomaly": 232.2988,
        "meta_ephemeris_type": 0,
        "meta_classification_type": "U",
        "meta_norad_cat_id": 33775,
        "meta_element_set_no": 999,
        "meta_rev_at_epoch": 88003,
        "meta_bstar": 0.00051484434,
        "meta_mean_motion_dot": 1.69e-05,
        "meta_mean_motion_ddot": 0,
        "tle_line1": "1 33775U 97051N   25337.19952470  .00001690  00000+0  51484-3 0  9994",
        "tle_line2": "2 33775  86.3643  53.6257 0013190 185.0257 232.2988 14.41433702880039"
      },
      "geometry": {
        "type": "Point",
        "coordinates": [
          26.05145568498669,
          -82.1281340911802
        ]
      }
    },
    {
      "type": "Feature",
      "properties": {
        "norad_id": 33776,
        "name": "IRIDIUM 33 DEB",
        "group": "iridium-33-debris",
        "lat": -71.81619663615112,
        "lon": -84.37249995920217,
        "alt_km": 763.5806512295803,
        "timestamp": "2025-12-03T15:48:03.451428+00:00",
        "meta_object_name": "IRIDIUM 33 DEB",
        "meta_object_id": "1997-051P",
        "meta_epoch": "2025-12-03T08:13:37.633152",
        "meta_mean_motion": 14.38204762,
        "meta_eccentricity": 0.00133494,
        "meta_inclination": 86.4037,
        "meta_ra_of_asc_node": 84.7217,
        "meta_arg_of_pericenter": 222.9162,
        "meta_mean_anomaly": 196.257,
        "meta_ephemeris_type": 0,
        "meta_classification_type": "U",
        "meta_norad_cat_id": 33776,
        "meta_element_set_no": 999,
        "meta_rev_at_epoch": 87947,
        "meta_bstar": 0.00046319122,
        "meta_mean_motion_dot": 1.427e-05,
        "meta_mean_motion_ddot": 0,
        "tle_line1": "1 33776U 97051P   25337.34279668  .00001427  00000+0  46319-3 0  9992",
        "tle_line2": "2 33776  86.4037  84.7217 0013349 222.9162 196.2570 14.38204762879471"
      },
      "geometry": {
        "type": "Point",
        "coordinates": [
          -84.37249995920217,
          -71.81619663615112
        ]
      }
    },
    {
      "type": "Feature",
      "properties": {
        "norad_id": 33777,
        "name": "IRIDIUM 33 DEB",
        "group": "iridium-33-debris",
        "lat": -13.730919088764125,
        "lon": -139.96033657663924,
        "alt_km": 712.9921095434393,
        "timestamp": "2025-12-03T15:48:03.451440+00:00",
        "meta_object_name": "IRIDIUM 33 DEB",
        "meta_object_id": "1997-051Q",
        "meta_epoch": "2025-12-03T05:00:48.827808",
        "meta_mean_motion": 14.55491481,
        "meta_eccentricity": 0.00051749,
        "meta_inclination": 86.3802,
        "meta_ra_of_asc_node": 39.3487,
        "meta_arg_of_pericenter": 293.9367,
        "meta_mean_anomaly": 66.1298,
        "meta_ephemeris_type": 0,
        "meta_classification_type": "U",
        "meta_norad_cat_id": 33777,
        "meta_element_set_no": 999,
        "meta_rev_at_epoch": 88395,
        "meta_bstar": 0.0013356932,
        "meta_mean_motion_dot": 5.833e-05,
        "meta_mean_motion_ddot": 0,
        "tle_line1": "1 33777U 97051Q   25337.20889847  .00005833  00000+0  13357-2 0  9994",
        "tle_line2": "2 33777  86.3802  39.3487 0005174 293.9367  66.1298 14.55491481883953"
      },
      "geometry": {
        "type": "Point",
        "coordinates": [
          -139.96033657663924,
          -13.730919088764125
        ]
      }
    },
    {
      "type": "Feature",
      "properties": {
        "norad_id": 33850,
        "name": "IRIDIUM 33 DEB",
        "group": "iridium-33-debris",
        "lat": -55.589602376857094,
        "lon": -140.55780486454725,
        "alt_km": 753.1066327168146,
        "timestamp": "2025-12-03T15:48:03.451451+00:00",
        "meta_object_name": "IRIDIUM 33 DEB",
        "meta_object_id": "1997-051T",
        "meta_epoch": "2025-12-03T04:59:33.606240",
        "meta_mean_motion": 14.42112566,
        "meta_eccentricity": 0.00112002,
        "meta_inclination": 86.3425,
        "meta_ra_of_asc_node": 34.2776,
        "meta_arg_of_pericenter": 191.1628,
        "meta_mean_anomaly": 227.9029,
        "meta_ephemeris_type": 0,
        "meta_classification_type": "U",
        "meta_norad_cat_id": 33850,
        "meta_element_set_no": 999,
        "meta_rev_at_epoch": 88015,
        "meta_bstar": 0.00061824469,
        "meta_mean_motion_dot": 2.052e-05,
        "meta_mean_motion_ddot": 0,
        "tle_line1": "1 33850U 97051T   25337.20802785  .00002052  00000+0  61824-3 0  9995",
        "tle_line2": "2 33850  86.3425  34.2776 0011200 191.1628 227.9029 14.42112566880155"
      },
      "geometry": {
        "type": "Point",
        "coordinates": [
          -140.55780486454725,
          -55.589602376857094
        ]
      }
    },
    {
      "type": "Feature",
      "properties": {
        "norad_id": 33853,
        "name": "IRIDIUM 33 DEB",
        "group": "iridium-33-debris",
        "lat": -44.49478153288429,
        "lon": 177.73610193692446,
        "alt_km": 786.5549365156785,
        "timestamp": "2025-12-03T15:48:03.451462+00:00",
        "meta_object_name": "IRIDIUM 33 DEB",
        "meta_object_id": "1997-051W",
        "meta_epoch": "2025-12-03T07:53:56.245344",
        "meta_mean_motion": 13.98959317,
        "meta_eccentricity": 0.02068146,
        "meta_inclination": 86.0004,
        "meta_ra_of_asc_node": 353.9387,
        "meta_arg_of_pericenter": 264.9104,
        "meta_mean_anomaly": 103.9379,
        "meta_ephemeris_type": 0,
        "meta_classification_type": "U",
        "meta_norad_cat_id": 33853,
        "meta_element_set_no": 999,
        "meta_rev_at_epoch": 85214,
        "meta_bstar": 0.0029890175,
        "meta_mean_motion_dot": 5.198e-05,
        "meta_mean_motion_ddot": 0,
        "tle_line1": "1 33853U 97051W   25337.32912321  .00005198  00000+0  29890-2 0  9999",
        "tle_line2": "2 33853  86.0004 353.9387 0206814 264.9104 103.9379 13.98959317852144"
      },
      "geometry": {
        "type": "Point",
        "coordinates": [
          177.73610193692446,
          -44.49478153288429
        ]
      }
    }
  ]
}